OBJECT_NAME,OBJECT_ID,EPOCH,MEAN_MOTION,ECCENTRICITY,INCLINATION,RA_OF_ASC_NODE,ARG_OF_PERICENTER,MEAN_ANOMALY,EPHEMERIS_TYPE,CLASSIFICATION_TYPE,NORAD_CAT_ID,ELEMENT_SET_NO,REV_AT_EPOCH,BSTAR,MEAN_MOTION_DOT,MEAN_MOTION_DDOT
STARLINK-37765,2026-122J,2026-06-17T14:11:59.305632,15.80853680,.0000674,97.2830,198.0932,92.1302,268.0043,0,U,69337,999,222,.60282384E-3,.117088E-2,0
STARLINK-37788,2026-122K,2026-06-17T14:00:01.000224,15.69454823,.00017051,97.2842,198.0666,108.8263,165.3773,0,U,69338,999,341,-.24816277E-1,-.2538209E-1,0
STARLINK-37743,2026-122L,2026-06-17T05:07:28.667136,15.80537045,.00022687,97.2830,197.6889,333.0437,27.0713,0,U,69339,999,216,-.15880239E-2,-.290758E-2,0
STARLINK-37780,2026-122M,2026-06-17T14:12:57.660192,15.80860204,.00021572,97.2830,198.0923,41.8396,318.3037,0,U,69340,999,222,.88724011E-3,.173588E-2,0
STARLINK-37781,2026-122N,2026-06-17T14:00:01.000224,15.69686733,.00017132,97.2840,198.0586,100.6153,155.9665,0,U,69341,999,341,-.24310914E-1,-.2514188E-1,0
STARLINK-37782,2026-122P,2026-06-17T14:00:01.000224,15.80706273,.00009457,97.2848,198.1038,101.5416,253.7715,0,U,69342,999,341,.49550391E-4,.9312E-4,0
STARLINK-37776,2026-122Q,2026-06-17T14:00:01.000224,15.81001009,.00011184,97.2845,198.1047,104.0393,256.5947,0,U,69343,999,341,-.10905912E-2,-.205927E-2,0
STARLINK-37786,2026-122R,2026-06-17T14:00:01.000224,15.75394658,.00012515,97.2849,198.1056,96.3450,267.8713,0,U,69344,999,341,-.19286252E-1,-.2484592E-1,0
STARLINK-37785,2026-122S,2026-06-17T14:00:01.000224,15.81029413,.00009913,97.2847,198.1112,89.1748,287.6294,0,U,69345,999,341,-.29938868E-2,-.544538E-2,0
STARLINK-37773,2026-122T,2026-06-17T12:26:24.166464,15.80574569,.00011553,97.2843,198.0408,29.7474,330.3859,0,U,69346,999,221,-.12411593E-2,-.229205E-2,0
STARLINK-37744,2026-122U,2026-06-17T14:00:01.000224,15.67419932,.00014105,97.2844,198.0865,108.8222,210.5555,0,U,69347,999,341,-.2623155E-1,-.2475761E-1,0
STARLINK-37775,2026-122V,2026-06-17T14:00:01.000224,15.80862130,.00007516,97.2844,198.1085,87.0330,280.7176,0,U,69348,999,341,-.15350422E-1,-.2524065E-1,0
STARLINK-37777,2026-122W,2026-06-17T12:26:44.321856,15.80870802,.00008706,97.2839,198.0407,78.8889,281.2477,0,U,69349,999,221,.7972504E-3,.155712E-2,0
STARLINK-37779,2026-122X,2026-06-17T12:24:59.479776,15.80870657,.00006661,97.2840,198.0431,51.4827,308.6501,0,U,69350,999,221,.95522849E-3,.187277E-2,0
STARLINK-37549,2026-122Y,2026-06-17T14:00:01.000224,15.73776300,.00013788,97.2839,198.0970,101.9090,241.6919,0,U,69351,999,341,-.20874381E-1,-.2560747E-1,0
STARLINK-37778,2026-122Z,2026-06-17T14:00:01.000224,15.75728004,.00011928,97.2841,198.1100,81.2152,292.9396,0,U,69352,999,341,-.18829718E-1,-.2465094E-1,0
STARLINK-37651,2026-123A,2026-06-17T13:14:03.704064,15.80910105,.00009846,53.1580,239.9824,98.7166,261.3968,0,U,69353,999,209,.67094053E-3,.134026E-2,0
STARLINK-37652,2026-123B,2026-06-17T13:15:42.310656,15.80907706,.00011808,53.1578,239.9905,72.7913,287.3239,0,U,69354,999,209,.85341101E-3,.171394E-2,0
STARLINK-37593,2026-123C,2026-06-17T13:14:27.291264,15.80905208,.0001369,53.1577,239.9841,55.8265,304.2887,0,U,69355,999,209,.88303831E-3,.177475E-2,0
STARLINK-37597,2026-123D,2026-06-17T13:12:06.241536,15.80926612,.00010885,53.1578,239.9727,94.1239,265.9908,0,U,69356,999,209,.90638093E-3,.182471E-2,0
STARLINK-37598,2026-123E,2026-06-17T13:09:05.117760,15.80903603,.00010757,53.1582,239.9587,59.2445,300.8684,0,U,69357,999,209,.65581996E-3,.130902E-2,0
STARLINK-37602,2026-123F,2026-06-17T14:00:01.000224,15.75240948,.00011286,53.1587,239.8666,64.3754,96.4461,0,U,69358,999,326,-.51986846E-4,-.8601E-4,0
STARLINK-37600,2026-123G,2026-06-17T14:00:01.000224,15.75230943,.000109,53.1587,239.8178,82.9279,101.8180,0,U,69359,999,326,.11771926E-4,.1165E-4,0
STARLINK-37599,2026-123H,2026-06-17T14:00:01.000224,15.80843913,.00011115,53.1574,239.6610,81.5714,179.0359,0,U,69360,999,321,.31746788E-3,.62328E-3,0
STARLINK-37039,2026-123J,2026-06-17T13:01:14.412288,15.80915247,.0001027,53.1581,239.9210,104.9206,255.1931,0,U,69361,999,209,.82651297E-3,.165921E-2,0
STARLINK-37040,2026-123K,2026-06-17T14:00:01.000224,15.80895995,.00012001,53.1584,239.4909,64.1421,278.2726,0,U,69362,999,321,-.25272893E-3,-.50343E-3,0
STARLINK-37582,2026-123L,2026-06-17T14:00:01.000224,15.75403494,.00012522,53.1591,239.7101,87.0307,149.2305,0,U,69363,999,321,-.18146867E-2,-.272015E-2,0
STARLINK-37309,2026-123M,2026-06-17T14:00:01.000224,15.80848414,.0000964,53.1587,239.3712,70.3085,330.1492,0,U,69364,999,335,.35047976E-3,.68949E-3,0
STARLINK-37436,2026-123N,2026-06-17T14:00:01.000224,15.80862271,.00009042,53.1585,239.3346,70.5839,347.4648,0,U,69365,999,335,.20599272E-3,.40126E-3,0
STARLINK-37581,2026-123P,2026-06-17T14:00:01.000224,15.80887461,.00014076,53.1582,239.3788,74.4925,322.1484,0,U,69366,999,320,-.11097686E-3,-.22561E-3,0
