STARLINK-37765          
1 69337U 26122J   26168.59165863  .00117088  00000+0  60282-3 0  9992
2 69337  97.2830 198.0932 0000674  92.1302 268.0043 15.80853680  2228
STARLINK-37788          
1 69338U 26122K   26168.58334491 -.02538209  00000+0 -24816-1 0  9994
2 69338  97.2842 198.0666 0001705 108.8263 165.3773 15.69454823  3417
STARLINK-37743          
1 69339U 26122L   26168.21352624 -.00290758  00000+0 -15880-2 0  9997
2 69339  97.2830 197.6889 0002268 333.0437  27.0713 15.80537045  2167
STARLINK-37780          
1 69340U 26122M   26168.59233403  .00173588  00000+0  88724-3 0  9990
2 69340  97.2830 198.0923 0002157  41.8396 318.3037 15.80860204  2226
STARLINK-37781          
1 69341U 26122N   26168.58334491 -.02514188  00000+0 -24311-1 0  9998
2 69341  97.2840 198.0586 0001713 100.6153 155.9665 15.69686733  3419
STARLINK-37782          
1 69342U 26122P   26168.58334491  .00009312  00000+0  49550-4 0  9998
2 69342  97.2848 198.1038 0000945 101.5416 253.7715 15.80706273  3417
STARLINK-37776          
1 69343U 26122Q   26168.58334491 -.00205927  00000+0 -10906-2 0  9992
2 69343  97.2845 198.1047 0001118 104.0393 256.5947 15.81001009  3414
STARLINK-37786          
1 69344U 26122R   26168.58334491 -.02484592  00000+0 -19286-1 0  9991
2 69344  97.2849 198.1056 0001251  96.3450 267.8713 15.75394658  3418
STARLINK-37785          
1 69345U 26122S   26168.58334491 -.00544538  00000+0 -29939-2 0  9994
2 69345  97.2847 198.1112 0000991  89.1748 287.6294 15.81029413  3415
STARLINK-37773          
1 69346U 26122T   26168.51833526 -.00229205  00000+0 -12412-2 0  9990
2 69346  97.2843 198.0408 0001155  29.7474 330.3859 15.80574569  2214
STARLINK-37744          
1 69347U 26122U   26168.58334491 -.02475761  00000+0 -26232-1 0  9991
2 69347  97.2844 198.0865 0001410 108.8222 210.5555 15.67419932  3419
STARLINK-37775          
1 69348U 26122V   26168.58334491 -.02524065  00000+0 -15350-1 0  9993
2 69348  97.2844 198.1085 0000751  87.0330 280.7176 15.80862130  3415
STARLINK-37777          
1 69349U 26122W   26168.51856854  .00155712  00000+0  79725-3 0  9992
2 69349  97.2839 198.0407 0000870  78.8889 281.2477 15.80870802  2218
STARLINK-37779          
1 69350U 26122X   26168.51735509  .00187277  00000+0  95523-3 0  9992
2 69350  97.2840 198.0431 0000666  51.4827 308.6501 15.80870657  2211
STARLINK-37549          
1 69351U 26122Y   26168.58334491 -.02560747  00000+0 -20874-1 0  9991
2 69351  97.2839 198.0970 0001378 101.9090 241.6919 15.73776300  3416
STARLINK-37778          
1 69352U 26122Z   26168.58334491 -.02465094  00000+0 -18830-1 0  9990
2 69352  97.2841 198.1100 0001192  81.2152 292.9396 15.75728004  3417
STARLINK-37651          
1 69353U 26123A   26168.55143176  .00134026  00000+0  67094-3 0  9999
2 69353  53.1580 239.9824 0000984  98.7166 261.3968 15.80910105  2091
STARLINK-37652          
1 69354U 26123B   26168.55257304  .00171394  00000+0  85341-3 0  9993
2 69354  53.1578 239.9905 0001180  72.7913 287.3239 15.80907706  2092
STARLINK-37593          
1 69355U 26123C   26168.55170476  .00177475  00000+0  88304-3 0  9996
2 69355  53.1577 239.9841 0001369  55.8265 304.2887 15.80905208  2095
STARLINK-37597          
1 69356U 26123D   26168.55007224  .00182471  00000+0  90638-3 0  9992
2 69356  53.1578 239.9727 0001088  94.1239 265.9908 15.80926612  2094
STARLINK-37598          
1 69357U 26123E   26168.54797590  .00130902  00000+0  65582-3 0  9996
2 69357  53.1582 239.9587 0001075  59.2445 300.8684 15.80903603  2096
STARLINK-37602          
1 69358U 26123F   26168.58334491 -.00008601  00000+0 -51987-4 0  9995
2 69358  53.1587 239.8666 0001128  64.3754  96.4461 15.75240948  3269
STARLINK-37600          
1 69359U 26123G   26168.58334491  .00001165  00000+0  11772-4 0  9990
2 69359  53.1587 239.8178 0001090  82.9279 101.8180 15.75230943  3267
STARLINK-37599          
1 69360U 26123H   26168.58334491  .00062328  00000+0  31747-3 0  9993
2 69360  53.1574 239.6610 0001111  81.5714 179.0359 15.80843913  3210
STARLINK-37039          
1 69361U 26123J   26168.54252792  .00165921  00000+0  82651-3 0  9996
2 69361  53.1581 239.9210 0001027 104.9206 255.1931 15.80915247  2097
STARLINK-37040          
1 69362U 26123K   26168.58334491 -.00050343  00000+0 -25273-3 0  9998
2 69362  53.1584 239.4909 0001200  64.1421 278.2726 15.80895995  3210
STARLINK-37582          
1 69363U 26123L   26168.58334491 -.00272015  00000+0 -18147-2 0  9992
2 69363  53.1591 239.7101 0001252  87.0307 149.2305 15.75403494  3213
STARLINK-37309          
1 69364U 26123M   26168.58334491  .00068949  00000+0  35048-3 0  9990
2 69364  53.1587 239.3712 0000964  70.3085 330.1492 15.80848414  3354
STARLINK-37436          
1 69365U 26123N   26168.58334491  .00040126  00000+0  20599-3 0  9993
2 69365  53.1585 239.3346 0000904  70.5839 347.4648 15.80862271  3350
STARLINK-37581          
1 69366U 26123P   26168.58334491 -.00022561  00000+0 -11098-3 0  9993
2 69366  53.1582 239.3788 0001407  74.4925 322.1484 15.80887461  3206
